FENGYUN 4B              
1 48808U 21047A   26153.68828171 -.00000317  00000+0  00000+0 0  9990
2 48808   0.1181  75.3985 0005240 291.0127 237.2172  1.00267737 18434
SXM-8                   
1 48838U 21049A   26155.19176041 -.00000193  00000+0  00000+0 0  9997
2 48838   0.0208  16.5236 0004965  19.4686 200.5488  1.00271021 18453
TIANLIAN 1-05           
1 49011U 21063A   26155.14060119  .00000120  00000+0  00000+0 0  9999
2 49011   1.5600  80.8118 0001198 317.0012 282.2195  1.00273209 17942
STAR ONE D2             
1 49055U 21069A   26155.17128294  .00000000  00000+0  00000+0 0  9992
2 49055   0.0112 352.6812 0001639 108.8545 142.6533  1.00268643 17817
EUTELSAT QUANTUM        
1 49056U 21069B   26155.22891902  .00000138  00000+0  00000+0 0  9994
2 49056   0.0131 322.0982 0002544 106.7279 313.9674  1.00271003 17795
ZHONGXING-2E            
1 49062U 21071A   26155.20113999 -.00000279  00000+0  00000+0 0  9992
2 49062   0.0411  93.3738 0002218  44.8874 284.8640  1.00270506 17900
TJS-7                   
1 49115U 21077A   26155.18890039 -.00000112  00000+0  00000+0 0  9997
2 49115   0.4757  86.2682 0002553 332.4299 162.4962  1.00271696  9421
CHINASAT 9B             
1 49125U 21080A   26155.18539014 -.00000300  00000+0  00000+0 0  9994
2 49125   0.0134  25.6065 0002087  65.1046 330.0462  1.00268948 17514
SHIJIAN-21 (SJ-21)      
1 49330U 21094A   26155.26260789 -.00000337  00000+0  00000+0 0  9996
2 49330   5.0823  61.2574 0049303 167.9535 245.9628  1.00278232  5230
SES-17                  
1 49332U 21095A   26155.17128294 -.00000260  00000+0  00000+0 0  9998
2 49332   0.0257  32.9010 0001195  42.4321 171.8558  1.00270024 17722
SYRACUSE 4A             
1 49333U 21095B   26154.57597846  .00000147  00000+0  00000+0 0  9998
2 49333   0.0176 331.3588 0001322 105.4549  68.0808  1.00273209 17816
QZS-1R (MICHIBIKI-1R)   
1 49336U 21096A   26154.66336014 -.00000252  00000+0  00000+0 0  9998
2 49336  37.4347  79.7838 0754074 271.5206 274.3869  1.00260981 16875
ZHONGXING-1D            
1 49505U 21114A   26155.30566586 -.00000324  00000+0  00000+0 0  9998
2 49505   0.0559  87.3706 0001029  80.7015 324.8938  1.00269552 16697
STPSAT-6                
1 49817U 21118A   26155.18647372 -.00000034  00000+0  00000+0 0  9995
2 49817   0.2870  85.5493 0001475 264.6555 217.8520  1.00273736 16441
EXPRESS AMU-7           
1 50001U 21123A   26153.71472487 -.00000230  00000+0  00000+0 0  9996
2 50001   0.0165 304.5721 0000622  41.0591 307.8527  1.00271575 16391
EXPRESS AMU-3           
1 50002U 21123B   26154.01532287 -.00000309  00000+0  00000+0 0  9993
2 50002   0.0160 318.5718 0000861 342.5789  58.8457  1.00270974  6892
TIANLIAN 2-02           
1 50005U 21124A   26154.48543443 -.00000002  00000+0  00000+0 0  9994
2 50005   0.7666  86.3506 0001270 226.9166 284.4050  1.00272855 16489
TURKSAT 5B              
1 50212U 21126A   26155.22891902  .00000158  00000+0  00000+0 0  9996
2 50212   0.0681 340.7814 0003773  18.5651  17.7440  1.00271909 16166
INMARSAT 6-F1           
1 50319U 21128A   26155.21225333 -.00000160  00000+0  00000+0 0  9998
2 50319   0.0162 308.2453 0000227 158.3721 306.2129  1.00269774 16121
SHIYAN-12 01 (SY-12 01) 
1 50321U 21129A   26154.74681170  .00000007  00000+0  00000+0 0  9993
2 50321   3.6398  80.0898 0003609 290.7507 221.5939  1.00038141 16368
SHIYAN-12 02 (SY-12 02) 
1 50322U 21129B   26154.74989406 -.00000158  00000+0  00000+0 0  9995
2 50322   3.6395  80.0970 0002710  48.7511 111.6108  1.00492737 16367
TJS-9                   
1 50574U 21135A   26155.30705253 -.00000286  00000+0  00000+0 0  9992
2 50574   0.0671 257.9871 0004944 148.3610  94.1443  1.00273957 16309
GOES 18                 
1 51850U 22021A   26155.29558606  .00000109  00000+0  00000+0 0  9994
2 51850   0.0400 136.7643 0000608 342.8871 102.5033  1.00271619  6469
ZHONGXING-6D            
1 52255U 22038A   26154.95142231 -.00000342  00000+0  00000+0 0  9997
2 52255   0.0256  94.5643 0000367 251.0595  14.3798  1.00271576 15296
NILESAT 301             
1 52817U 22061A   26155.20720762 -.00000046  00000+0  00000+0 0  9998
2 52817   0.0519  18.0880 0005739  24.6375 277.5213  1.00272145 14606
CMS-02 (GSAT-24)        
1 52903U 22067A   26155.08245668 -.00000153  00000+0  00000+0 0  9992
2 52903   0.0114  23.9980 0001913 352.1850 349.0466  1.00272078 14471
MEASAT 3D               
1 52904U 22067B   26155.20113999 -.00000230  00000+0  00000+0 0  9994
2 52904   0.0274 347.7374 0001427  48.0710  20.7649  1.00271694 14513
SES-22                  
1 52933U 22071A   26155.30973468  .00000116  00000+0  00000+0 0  9999
2 52933   0.0155 337.5050 0001391  87.3746 160.3768  1.00272713  7390
WFOV (USA 332)          
1 52940U 22073A   26155.30349919 -.00000351  00000+0  00000+0 0  9999
2 52940   3.6777  78.6913 0001866 247.9751 154.5902  1.00269525 14249
TIANLIAN 2-03           
1 53100U 22078A   26154.73860684  .00000084  00000+0  00000+0 0  9998
2 53100   0.6381  76.7497 0001560 313.9241 138.0084  1.00272687 14411
SBIRS GEO-6 (USA 336)   
1 53355U 22092A   26155.30739920 -.00000280  00000+0  00000+0 0  9997
2 53355   3.2801 317.2735 0002212 112.9062  72.2537  1.00271793 14105
