OBJECT_NAME,OBJECT_ID,EPOCH,MEAN_MOTION,ECCENTRICITY,INCLINATION,RA_OF_ASC_NODE,ARG_OF_PERICENTER,MEAN_ANOMALY,EPHEMERIS_TYPE,CLASSIFICATION_TYPE,NORAD_CAT_ID,ELEMENT_SET_NO,REV_AT_EPOCH,BSTAR,MEAN_MOTION_DOT,MEAN_MOTION_DDOT
FENGYUN 4B,2021-047A,2026-06-02T16:31:07.539744,1.00267737,.00052405,0.1181,75.3985,291.0127,237.2172,0,U,48808,999,1843,0,-.317E-5,0
SXM-8,2021-049A,2026-06-04T04:36:08.099424,1.00271021,.00049657,0.0208,16.5236,19.4686,200.5488,0,U,48838,999,1845,0,-.193E-5,0
TIANLIAN 1-05,2021-063A,2026-06-04T03:22:27.942816,1.00273209,.00011988,1.5600,80.8118,317.0012,282.2195,0,U,49011,999,1794,0,.12E-5,0
STAR ONE D2,2021-069A,2026-06-04T04:06:38.846016,1.00268643,.00016394,0.0112,352.6812,108.8545,142.6533,0,U,49055,999,1781,0,0,0
EUTELSAT QUANTUM,2021-069B,2026-06-04T05:29:38.603328,1.00271003,.00025445,0.0131,322.0982,106.7279,313.9674,0,U,49056,999,1779,0,.138E-5,0
ZHONGXING-2E,2021-071A,2026-06-04T04:49:38.495136,1.00270506,.00022186,0.0411,93.3738,44.8874,284.8640,0,U,49062,999,1790,0,-.279E-5,0
TJS-7,2021-077A,2026-06-04T04:32:00.993696,1.00271696,.00025534,0.4757,86.2682,332.4299,162.4962,0,U,49115,999,942,0,-.112E-5,0
CHINASAT 9B,2021-080A,2026-06-04T04:26:57.708096,1.00268948,.00020874,0.0134,25.6065,65.1046,330.0462,0,U,49125,999,1751,0,-.3E-5,0
SHIJIAN-21 (SJ-21),2021-094A,2026-06-04T06:18:09.321696,1.00278232,.0049303,5.0823,61.2574,167.9535,245.9628,0,U,49330,999,523,0,-.337E-5,0
SES-17,2021-095A,2026-06-04T04:06:38.846016,1.00270024,.00011954,0.0257,32.9010,42.4321,171.8558,0,U,49332,999,1772,0,-.26E-5,0
SYRACUSE 4A,2021-095B,2026-06-03T13:49:24.538944,1.00273209,.0001322,0.0176,331.3588,105.4549,68.0808,0,U,49333,999,1781,0,.147E-5,0
QZS-1R (MICHIBIKI-1R),2021-096A,2026-06-03T15:55:14.316096,1.00260981,.07540746,37.4347,79.7838,271.5206,274.3869,0,U,49336,999,1687,0,-.252E-5,0
ZHONGXING-1D,2021-114A,2026-06-04T07:20:09.530304,1.00269552,.00010297,0.0559,87.3706,80.7015,324.8938,0,U,49505,999,1669,0,-.324E-5,0
STPSAT-6,2021-118A,2026-06-04T04:28:31.329408,1.00273736,.00014756,0.2870,85.5493,264.6555,217.8520,0,U,49817,999,1644,0,-.34E-6,0
EXPRESS AMU-7,2021-123A,2026-06-02T17:09:12.228768,1.00271575,.00006225,0.0165,304.5721,41.0591,307.8527,0,U,50001,999,1639,0,-.23E-5,0
EXPRESS AMU-3,2021-123B,2026-06-03T00:22:03.895968,1.00270974,.00008615,0.0160,318.5718,342.5789,58.8457,0,U,50002,999,689,0,-.309E-5,0
TIANLIAN 2-02,2021-124A,2026-06-03T11:39:01.534752,1.00272855,.00012704,0.7666,86.3506,226.9166,284.4050,0,U,50005,999,1648,0,-.2E-7,0
TURKSAT 5B,2021-126A,2026-06-04T05:29:38.603328,1.00271909,.00037732,0.0681,340.7814,18.5651,17.7440,0,U,50212,999,1616,0,.158E-5,0
INMARSAT 6-F1,2021-128A,2026-06-04T05:05:38.687712,1.00269774,.00002276,0.0162,308.2453,158.3721,306.2129,0,U,50319,999,1612,0,-.16E-5,0
SHIYAN-12 01 (SY-12 01),2021-129A,2026-06-03T17:55:24.530880,1.00038141,.0003609,3.6398,80.0898,290.7507,221.5939,0,U,50321,999,1636,0,.7E-7,0
SHIYAN-12 02 (SY-12 02),2021-129B,2026-06-03T17:59:50.846784,1.00492737,.000271,3.6395,80.0970,48.7511,111.6108,0,U,50322,999,1636,0,-.158E-5,0
TJS-9,2021-135A,2026-06-04T07:22:09.338592,1.00273957,.00049445,0.0671,257.9871,148.3610,94.1443,0,U,50574,999,1630,0,-.286E-5,0
GOES 18,2022-021A,2026-06-04T07:05:38.635584,1.00271619,.00006086,0.0400,136.7643,342.8871,102.5033,0,U,51850,999,646,0,.109E-5,0
ZHONGXING-6D,2022-038A,2026-06-03T22:50:02.887584,1.00271576,.00003672,0.0256,94.5643,251.0595,14.3798,0,U,52255,999,1529,0,-.342E-5,0
NILESAT 301,2022-061A,2026-06-04T04:58:22.738368,1.00272145,.0005739,0.0519,18.0880,24.6375,277.5213,0,U,52817,999,1460,0,-.46E-6,0
CMS-02 (GSAT-24),2022-067A,2026-06-04T01:58:44.257152,1.00272078,.00019132,0.0114,23.9980,352.1850,349.0466,0,U,52903,999,1447,0,-.153E-5,0
MEASAT 3D,2022-067B,2026-06-04T04:49:38.495136,1.00271694,.00014276,0.0274,347.7374,48.0710,20.7649,0,U,52904,999,1451,0,-.23E-5,0
SES-22,2022-071A,2026-06-04T07:26:01.076352,1.00272713,.00013911,0.0155,337.5050,87.3746,160.3768,0,U,52933,999,739,0,.116E-5,0
WFOV (USA 332),2022-073A,2026-06-04T07:17:02.330016,1.00269525,.00018666,3.6777,78.6913,247.9751,154.5902,0,U,52940,999,1424,0,-.351E-5,0
TIANLIAN 2-03,2022-078A,2026-06-03T17:43:35.630976,1.00272687,.00015601,0.6381,76.7497,313.9241,138.0084,0,U,53100,999,1441,0,.84E-6,0
SBIRS GEO-6 (USA 336),2022-092A,2026-06-04T07:22:39.290880,1.00271793,.0002212,3.2801,317.2735,112.9062,72.2537,0,U,53355,999,1410,0,-.28E-5,0
